STARLINK-2476           
1 48134U 21027AU  26068.52710082 -.00000610  00000+0 -84653-5 0  9998
2 48134  53.1609 166.0280 0001733  85.9786 274.1413 15.30213621272485
KUIPER-00222            
1 67782U 26030U   26068.67636257  .00055223  00000+0  17317-2 0  9992
2 67782  51.8817 219.7147 0012800  40.1845 320.0084 15.32445377  5087
